NORAD_CAT_ID,OBJECT_NAME,OBJECT_TYPE,EPOCH,MEAN_MOTION,ECCENTRICITY,INCLINATION,RA_OF_ASC_NODE,ARG_OF_PERICENTER,MEAN_ANOMALY,BSTAR,MEAN_MOTION_DOT,MEAN_MOTION_DDOT,TLE_LINE0,TLE_LINE1,TLE_LINE2,SEMIMAJOR_AXIS,PERIOD,APOGEE,PERIGEE,DECAYED
55654.0,STARLINK-5070,PAYLOAD,2024-06-29 12:49:11,14.98319154,0.0003159,70.0004,303.2086,268.17,91.9097,-6.3024e-05,-8.45e-06,0.0,0 STARLINK-5070,1 55654U 23021AC  24181.53415754 -.00000845  00000-0 -63024-4 0  9991,2 55654  70.0004 303.2086 0003159 268.1700  91.9097 14.98319154 75891,6950.226,96.108,574.287,569.896,0.0
55654.0,STARLINK-5070,PAYLOAD,2024-06-29 14:25:19,14.98321086,0.0003254,70.0001,303.0397,270.1151,89.9635,-4.1136e-05,-5.84e-06,0.0,0 STARLINK-5070,1 55654U 23021AC  24181.60091637 -.00000584  00000-0 -41136-4 0  9999,2 55654  70.0001 303.0397 0003254 270.1151  89.9635 14.98321086 76208,6950.22,96.108,574.347,569.824,0.0
55654.0,STARLINK-5070,PAYLOAD,2024-06-29 17:37:35,14.98322146,0.0003196,70.0001,302.7027,270.1777,89.9016,-2.7871e-05,-4.25e-06,0.0,0 STARLINK-5070,1 55654U 23021AC  24181.73443607 -.00000425  00000-0 -27871-4 0  9995,2 55654  70.0001 302.7027 0003196 270.1777  89.9016 14.98322146 76226,6950.217,96.108,574.303,569.861,0.0
55654.0,STARLINK-5070,PAYLOAD,2024-06-30 01:38:15,14.98326729,0.0003092,70.0004,301.8607,268.8816,91.1989,-1.8625e-06,-1.15e-06,0.0,0 STARLINK-5070,1 55654U 23021AC  24182.06823393 -.00000115  00000-0 -18625-5 0  9990,2 55654  70.0004 301.8607 0003092 268.8816  91.1989 14.98326729 75972,6950.203,96.107,574.217,569.919,0.0
55654.0,STARLINK-5070,PAYLOAD,2024-06-30 14:27:19,14.98332275,0.0003021,70.0003,300.5144,265.5924,94.489,4.812e-05,4.81e-06,0.0,0 STARLINK-5070,1 55654U 23021AC  24182.60230964  .00000481  00000-0  48120-4 0  9992,2 55654  70.0003 300.5144 0003021 265.5924  94.4890 14.98332275 76352,6950.186,96.107,574.151,569.951,0.0
55654.0,STARLINK-5070,PAYLOAD,2024-06-30 17:39:34,14.98344402,0.0003048,70.0,300.1772,269.0827,90.9983,9.9645e-05,1.097e-05,0.0,0 STARLINK-5070,1 55654U 23021AC  24182.73581988  .00001097  00000-0  99645-4 0  9993,2 55654  70.0000 300.1772 0003048 269.0827  90.9983 14.98344402 76070,6950.148,96.106,574.132,569.895,0.0
55654.0,STARLINK-5070,PAYLOAD,2024-07-01 01:40:15,14.98339997,0.0003051,70.0005,299.3335,270.3982,89.6827,-3.0997e-05,-4.63e-06,0.0,0 STARLINK-5070,1 55654U 23021AC  24183.06962328 -.00000463  00000-0 -30997-4 0  9994,2 55654  70.0005 299.3335 0003051 270.3982  89.6827 14.98339997 76121,6950.162,96.106,574.147,569.906,0.0
55654.0,STARLINK-5070,PAYLOAD,2024-07-01 11:17:04,14.98325268,0.0002718,70.0,298.3239,265.3343,94.7506,0.00020277,2.327e-05,0.0,0 STARLINK-5070,1 55654U 23021AC  24183.47018829  .00002327  00000-0  20277-3 0  9995,2 55654  70.0000 298.3239 0002718 265.3343  94.7506 14.98325268 76185,6950.208,96.107,573.962,570.183,0.0
55654.0,STARLINK-5070,PAYLOAD,2024-07-01 14:29:20,14.98327605,0.0002838,70.0003,297.9889,270.457,89.6264,0.00022174,2.554e-05,0.0,0 STARLINK-5070,1 55654U 23021AC  24183.60370661  .00002554  00000-0  22174-3 0  9995,2 55654  70.0003 297.9889 0002838 270.4570  89.6264 14.98327605 76503,6950.2,96.107,574.038,570.093,0.0
55654.0,STARLINK-5070,PAYLOAD,2024-07-01 17:41:36,14.98318109,0.0003006,70.0004,297.6525,273.1688,86.9127,0.00038621,4.517e-05,0.0,0 STARLINK-5070,1 55654U 23021AC  24183.73722953  .00004517  00000-0  38621-3 0  9999,2 55654  70.0004 297.6525 0003006 273.1688  86.9127 14.98318109 76525,6950.23,96.108,574.184,570.005,0.0
55654.0,STARLINK-5070,PAYLOAD,2024-07-02 14:31:21,14.98333165,0.0002825,70.0009,295.465,270.7748,89.3088,-2.121e-05,-3.46e-06,0.0,0 STARLINK-5070,1 55654U 23021AC  24184.60510884 -.00000346  00000-0 -21210-4 0  9999,2 55654  70.0009 295.4650 0002825 270.7748  89.3088 14.98333165 76659,6950.183,96.107,574.012,570.085,0.0
55654.0,STARLINK-5070,PAYLOAD,2024-07-02 17:43:37,14.98333478,0.0002729,70.0009,295.129,267.2495,92.8352,-1.0644e-05,-2.2e-06,0.0,0 STARLINK-5070,1 55654U 23021AC  24184.73862829 -.00000220  00000-0 -10644-4 0  9992,2 55654  70.0009 295.1290 0002729 267.2495  92.8352 14.98333478 76378,6950.182,96.107,573.944,570.15,0.0
55654.0,STARLINK-5070,PAYLOAD,2024-07-03 17:45:38,14.98333861,0.0002883,70.0007,292.604,267.939,92.1439,8.0202e-05,8.64e-06,0.0,0 STARLINK-5070,1 55654U 23021AC  24185.74002358  .00000864  00000-0  80202-4 0  9996,2 55654  70.0007 292.6040 0002883 267.9390  92.1439 14.98333861 76525,6950.181,96.107,574.05,570.042,0.0
55654.0,STARLINK-5070,PAYLOAD,2024-07-04 12:59:15,14.98325517,0.0002894,70.0008,290.5841,267.5373,92.5454,3.5445e-05,3.3e-06,0.0,0 STARLINK-5070,1 55654U 23021AC  24186.54115005  .00000330  00000-0  35445-4 0  9996,2 55654  70.0008 290.5841 0002894 267.5373  92.5454 14.98325517 76644,6950.207,96.107,574.083,570.06,0.0
55654.0,STARLINK-5070,PAYLOAD,2024-07-04 14:35:23,14.98318713,0.0003264,70.0008,290.4156,272.3478,87.7308,0.00019401,2.222e-05,0.0,0 STARLINK-5070,1 55654U 23021AC  24186.60791033  .00002222  00000-0  19401-3 0  9999,2 55654  70.0008 290.4156 0003264 272.3478  87.7308 14.98318713 76952,6950.228,96.108,574.361,569.824,0.0
55654.0,STARLINK-5070,PAYLOAD,2024-07-04 16:11:31,14.98327528,0.0002806,70.0008,290.2473,267.2814,92.8024,5.8098e-05,6e-06,0.0,0 STARLINK-5070,1 55654U 23021AC  24186.67466838  .00000600  00000-0  58098-4 0  9992,2 55654  70.0008 290.2473 0002806 267.2814  92.8024 14.98327528 76967,6950.201,96.107,574.016,570.115,0.0
55654.0,STARLINK-5070,PAYLOAD,2024-07-05 00:12:10,14.98360737,0.0003027,70.0008,289.4057,268.1691,91.9121,-0.00045783,-5.556e-05,0.0,0 STARLINK-5070,1 55654U 23021AC  24187.00845766 -.00005556  00000-0 -45783-3 0  9994,2 55654  70.0008 289.4057 0003027 268.1691  91.9121 14.98360737 76714,6950.098,96.105,574.067,569.859,0.0
55654.0,STARLINK-5070,PAYLOAD,2024-07-05 13:01:15,14.98334925,0.0002954,70.0005,288.0595,269.9928,90.0893,7.2102e-05,7.68e-06,0.0,0 STARLINK-5070,1 55654U 23021AC  24187.54254248  .00000768  00000-0  72102-4 0  9996,2 55654  70.0005 288.0595 0002954 269.9928  90.0893 14.98334925 76797,6950.178,96.107,574.096,569.99,0.0
55654.0,STARLINK-5070,PAYLOAD,2024-07-05 14:37:23,14.98334642,0.000297,70.0005,287.8911,270.4961,89.5857,6.5887e-05,6.93e-06,0.0,0 STARLINK-5070,1 55654U 23021AC  24187.60930263  .00000693  00000-0  65887-4 0  9990,2 55654  70.0005 287.8911 0002970 270.4961  89.5857 14.98334642 77103,6950.179,96.107,574.108,569.979,0.0
55654.0,STARLINK-5070,PAYLOAD,2024-07-05 16:13:31,14.98335192,0.0002935,70.0004,287.7227,268.8082,91.2741,6.1565e-05,6.42e-06,0.0,0 STARLINK-5070,1 55654U 23021AC  24187.67606217  .00000642  00000-0  61565-4 0  9999,2 55654  70.0004 287.7227 0002935 268.8082  91.2741 14.98335192 77111,6950.177,96.107,574.082,570.002,0.0
55654.0,STARLINK-5070,PAYLOAD,2024-07-06 00:14:13,14.98298442,0.0003166,70.0002,286.8811,257.4108,102.6697,0.00053266,6.263e-05,0.0,0 STARLINK-5070,1 55654U 23021AC  24188.00987410  .00006263  00000-0  53266-3 0  9997,2 55654  70.0002 286.8811 0003166 257.4108 102.6697 14.98298442 76862,6950.29,96.109,574.356,569.955,0.0
55654.0,STARLINK-5070,PAYLOAD,2024-07-06 13:03:16,14.98328561,0.0002893,70.0001,285.5324,264.61,95.4729,3.8149e-05,3.62e-06,0.0,0 STARLINK-5070,1 55654U 23021AC  24188.54394631  .00000362  00000-0  38149-4 0  9991,2 55654  70.0001 285.5324 0002893 264.6100  95.4729 14.98328561 76944,6950.197,96.107,574.073,570.052,0.0
55654.0,STARLINK-5070,PAYLOAD,2024-07-06 14:39:25,14.98326057,0.0002827,70.0002,285.3641,262.0443,98.0396,1.4221e-05,7.7e-07,0.0,0 STARLINK-5070,1 55654U 23021AC  24188.61070858  .00000077  00000-0  14221-4 0  9999,2 55654  70.0002 285.3641 0002827 262.0443  98.0396 14.98326057 77256,6950.205,96.107,574.035,570.105,0.0
55654.0,STARLINK-5070,PAYLOAD,2024-07-06 16:15:33,14.98327212,0.0002817,70.0002,285.1958,261.7506,98.3334,3.0641e-05,2.73e-06,0.0,0 STARLINK-5070,1 55654U 23021AC  24188.67746753  .00000273  00000-0  30641-4 0  9991,2 55654  70.0002 285.1958 0002817 261.7506  98.3334 14.98327212 77260,6950.202,96.107,574.024,570.109,0.0
55654.0,STARLINK-5070,PAYLOAD,2024-07-07 13:05:17,14.98331602,0.0002995,70.0004,283.0078,267.3305,92.7511,3.2137e-06,-5.5e-07,0.0,0 STARLINK-5070,1 55654U 23021AC  24189.54534523 -.00000055  00000-0  32137-5 0  9990,2 55654  70.0004 283.0078 0002995 267.3305  92.7511 14.98331602 77092,6950.188,96.107,574.135,569.971,0.0
55654.0,STARLINK-5070,PAYLOAD,2024-07-08 13:07:18,14.98333274,0.0003052,70.0003,280.4846,266.105,93.976,7.5445e-05,8.07e-06,0.0,0 STARLINK-5070,1 55654U 23021AC  24190.54674141  .00000807  00000-0  75445-4 0  9995,2 55654  70.0003 280.4846 0003052 266.1050  93.9760 14.98333274 77247,6950.183,96.107,574.169,569.927,0.0
55654.0,STARLINK-5070,PAYLOAD,2024-07-08 16:19:34,14.98334602,0.0003029,70.0003,280.1478,266.0872,93.994,8.8581e-05,9.64e-06,0.0,0 STARLINK-5070,1 55654U 23021AC  24190.68025993  .00000964  00000-0  88581-4 0  9994,2 55654  70.0003 280.1478 0003029 266.0872  93.9940 14.98334602 77561,6950.179,96.107,574.149,569.938,0.0
55654.0,STARLINK-5070,PAYLOAD,2024-07-09 13:09:19,14.98332175,0.0002985,70.0004,277.9595,267.2404,92.8413,3.0472e-05,2.71e-06,0.0,0 STARLINK-5070,1 55654U 23021AC  24191.54814156  .00000271  00000-0  30472-4 0  9994,2 55654  70.0004 277.9595 0002985 267.2404  92.8413 14.98332175 77397,6950.186,96.107,574.126,569.977,0.0
55654.0,STARLINK-5070,PAYLOAD,2024-07-09 14:45:27,14.98332503,0.0002979,70.0004,277.7912,267.2611,92.8207,3.3478e-05,3.07e-06,0.0,0 STARLINK-5070,1 55654U 23021AC  24191.61490114  .00000307  00000-0  33478-4 0  9995,2 55654  70.0004 277.7912 0002979 267.2611  92.8207 14.98332503 77702,6950.185,96.107,574.121,569.98,0.0
55654.0,STARLINK-5070,PAYLOAD,2024-07-09 16:21:35,14.98333009,0.000298,70.0004,277.6228,267.2326,92.8492,3.797e-05,3.6e-06,0.0,0 STARLINK-5070,1 55654U 23021AC  24191.68166057  .00000360  00000-0  37970-4 0  9998,2 55654  70.0004 277.6228 0002980 267.2326  92.8492 14.98333009 77715,6950.184,96.107,574.12,569.977,0.0
